[{"OBJECT_NAME":"STARLINK-31002","OBJECT_ID":"2023-186Y","EPOCH":"2026-03-09T00:54:12.084768","MEAN_MOTION":15.27578882,"ECCENTRICITY":4.64e-5,"INCLINATION":43.0003,"RA_OF_ASC_NODE":67.5594,"ARG_OF_PERICENTER":274.1731,"MEAN_ANOMALY":85.9067,"EPHEMERIS_TYPE":0,"CLASSIFICATION_TYPE":"U","NORAD_CAT_ID":58495,"ELEMENT_SET_NO":999,"REV_AT_EPOCH":12595,"BSTAR":0.00010562756,"MEAN_MOTION_DOT":2.646e-5,"MEAN_MOTION_DDOT":0},{"OBJECT_NAME":"FLOCK 4G-1","OBJECT_ID":"2025-009BK","EPOCH":"2026-03-09T18:13:41.778912","MEAN_MOTION":15.27421081,"ECCENTRICITY":0.00031801,"INCLINATION":97.4059,"RA_OF_ASC_NODE":151.3158,"ARG_OF_PERICENTER":323.1401,"MEAN_ANOMALY":36.9619,"EPHEMERIS_TYPE":0,"CLASSIFICATION_TYPE":"U","NORAD_CAT_ID":62666,"ELEMENT_SET_NO":999,"REV_AT_EPOCH":6372,"BSTAR":0.00050653644,"MEAN_MOTION_DOT":0.00013534,"MEAN_MOTION_DDOT":0}]
